[{"OBJECT_NAME":"STARLINK-35357","OBJECT_ID":"2025-218J","EPOCH":"2026-03-09T14:12:43.361856","MEAN_MOTION":15.05647342,"ECCENTRICITY":0.0001957,"INCLINATION":97.6023,"RA_OF_ASC_NODE":292.8374,"ARG_OF_PERICENTER":101.6178,"MEAN_ANOMALY":258.5268,"EPHEMERIS_TYPE":0,"CLASSIFICATION_TYPE":"U","NORAD_CAT_ID":65799,"ELEMENT_SET_NO":999,"REV_AT_EPOCH":2495,"BSTAR":0.00024481,"MEAN_MOTION_DOT":3.473e-5,"MEAN_MOTION_DDOT":0},{"OBJECT_NAME":"CZ-3 R\/B","OBJECT_ID":"1984-035B","EPOCH":"2026-03-09T21:39:54.002304","MEAN_MOTION":2.34925824,"ECCENTRICITY":0.7155312,"INCLINATION":31.1173,"RA_OF_ASC_NODE":4.743,"ARG_OF_PERICENTER":307.3361,"MEAN_ANOMALY":7.0347,"EPHEMERIS_TYPE":0,"CLASSIFICATION_TYPE":"U","NORAD_CAT_ID":14900,"ELEMENT_SET_NO":999,"REV_AT_EPOCH":28940,"BSTAR":0.0008261944,"MEAN_MOTION_DOT":6.2e-7,"MEAN_MOTION_DDOT":0}]
